{
  "type": "FeatureCollection",
  "features": [
    {
      "type": "Feature",
      "properties": {
        "norad_id": 66417,
        "name": "HULIANWANG DIGUI 13F",
        "group": "last-30-days",
        "lat": 18.901825708097817,
        "lon": -55.501684466301114,
        "alt_km": 807.3234379786845,
        "timestamp": "2025-12-06T14:35:35.909015+00:00",
        "meta_object_name": "HULIANWANG DIGUI 13F",
        "meta_object_id": "2025-258F",
        "meta_epoch": "2025-12-05T23:18:17.049024",
        "meta_mean_motion": 14.22738781,
        "meta_eccentricity": 0.00124384,
        "meta_inclination": 50.0003,
        "meta_ra_of_asc_node": 290.468,
        "meta_arg_of_pericenter": 340.0345,
        "meta_mean_anomaly": 20.008,
        "meta_ephemeris_type": 0,
        "meta_classification_type": "U",
        "meta_norad_cat_id": 66417,
        "meta_element_set_no": 999,
        "meta_rev_at_epoch": 369,
        "meta_bstar": 0.00034167411,
        "meta_mean_motion_dot": 6.12e-06,
        "meta_mean_motion_ddot": 0,
        "tle_line1": "1 66417U 25258F   25339.97103066  .00000612  00000+0  34167-3 0  9992",
        "tle_line2": "2 66417  50.0003 290.4680 0012438 340.0345  20.0080 14.22738781  3691"
      },
      "geometry": {
        "type": "Point",
        "coordinates": [
          -55.501684466301114,
          18.901825708097817
        ]
      }
    },
    {
      "type": "Feature",
      "properties": {
        "norad_id": 66418,
        "name": "HULIANWANG DIGUI 13G",
        "group": "last-30-days",
        "lat": 34.833878570604824,
        "lon": -36.49888617745287,
        "alt_km": 808.2866945755059,
        "timestamp": "2025-12-06T14:35:35.909025+00:00",
        "meta_object_name": "HULIANWANG DIGUI 13G",
        "meta_object_id": "2025-258G",
        "meta_epoch": "2025-12-05T21:30:39.941568",
        "meta_mean_motion": 14.22784746,
        "meta_eccentricity": 0.00116654,
        "meta_inclination": 50.0022,
        "meta_ra_of_asc_node": 290.7431,
        "meta_arg_of_pericenter": 336.1209,
        "meta_mean_anomaly": 23.9161,
        "meta_ephemeris_type": 0,
        "meta_classification_type": "U",
        "meta_norad_cat_id": 66418,
        "meta_element_set_no": 999,
        "meta_rev_at_epoch": 368,
        "meta_bstar": 0.00031844208,
        "meta_mean_motion_dot": 5.6e-06,
        "meta_mean_motion_ddot": 0,
        "tle_line1": "1 66418U 25258G   25339.89629562  .00000560  00000+0  31844-3 0  9999",
        "tle_line2": "2 66418  50.0022 290.7431 0011665 336.1209  23.9161 14.22784746  3689"
      },
      "geometry": {
        "type": "Point",
        "coordinates": [
          -36.49888617745287,
          34.833878570604824
        ]
      }
    },
    {
      "type": "Feature",
      "properties": {
        "norad_id": 66419,
        "name": "HULIANWANG DIGUI 13H",
        "group": "last-30-days",
        "lat": 40.605729348502656,
        "lon": -26.238908487232315,
        "alt_km": 806.9772342570823,
        "timestamp": "2025-12-06T14:35:35.909035+00:00",
        "meta_object_name": "HULIANWANG DIGUI 13H",
        "meta_object_id": "2025-258H",
        "meta_epoch": "2025-12-05T14:43:51.252960",
        "meta_mean_motion": 14.23328519,
        "meta_eccentricity": 0.00120585,
        "meta_inclination": 50.0017,
        "meta_ra_of_asc_node": 291.9103,
        "meta_arg_of_pericenter": 334.7106,
        "meta_mean_anomaly": 25.3215,
        "meta_ephemeris_type": 0,
        "meta_classification_type": "U",
        "meta_norad_cat_id": 66419,
        "meta_element_set_no": 999,
        "meta_rev_at_epoch": 364,
        "meta_bstar": 0.00013377596,
        "meta_mean_motion_dot": 1.46e-06,
        "meta_mean_motion_ddot": 0,
        "tle_line1": "1 66419U 25258H   25339.61378765  .00000146  00000+0  13378-3 0  9998",
        "tle_line2": "2 66419  50.0017 291.9103 0012058 334.7106  25.3215 14.23328519  3645"
      },
      "geometry": {
        "type": "Point",
        "coordinates": [
          -26.238908487232315,
          40.605729348502656
        ]
      }
    },
    {
      "type": "Feature",
      "properties": {
        "norad_id": 66420,
        "name": "HULIANWANG DIGUI 13J",
        "group": "last-30-days",
        "lat": 43.266308600803946,
        "lon": -20.05620499737331,
        "alt_km": 807.2200280451179,
        "timestamp": "2025-12-06T14:35:35.909045+00:00",
        "meta_object_name": "HULIANWANG DIGUI 13J",
        "meta_object_id": "2025-258J",
        "meta_epoch": "2025-12-05T23:07:39.042912",
        "meta_mean_motion": 14.22956918,
        "meta_eccentricity": 0.00133221,
        "meta_inclination": 50.0158,
        "meta_ra_of_asc_node": 290.4806,
        "meta_arg_of_pericenter": 343.9613,
        "meta_mean_anomaly": 16.0876,
        "meta_ephemeris_type": 0,
        "meta_classification_type": "U",
        "meta_norad_cat_id": 66420,
        "meta_element_set_no": 999,
        "meta_rev_at_epoch": 368,
        "meta_bstar": 0.00030678625,
        "meta_mean_motion_dot": 5.36e-06,
        "meta_mean_motion_ddot": 0,
        "tle_line1": "1 66420U 25258J   25339.96364633  .00000536  00000+0  30679-3 0  9993",
        "tle_line2": "2 66420  50.0158 290.4806 0013322 343.9613  16.0876 14.22956918  3680"
      },
      "geometry": {
        "type": "Point",
        "coordinates": [
          -20.05620499737331,
          43.266308600803946
        ]
      }
    },
    {
      "type": "Feature",
      "properties": {
        "norad_id": 66421,
        "name": "CZ-12 R/B",
        "group": "last-30-days",
        "lat": -48.32296741332859,
        "lon": -146.05662070658673,
        "alt_km": 728.9287150900245,
        "timestamp": "2025-12-06T14:35:35.909057+00:00",
        "meta_object_name": "CZ-12 R/B",
        "meta_object_id": "2025-258K",
        "meta_epoch": "2025-12-06T06:38:11.741856",
        "meta_mean_motion": 14.4231957,
        "meta_eccentricity": 0.00645292,
        "meta_inclination": 49.9961,
        "meta_ra_of_asc_node": 285.9938,
        "meta_arg_of_pericenter": 226.1748,
        "meta_mean_anomaly": 133.3827,
        "meta_ephemeris_type": 0,
        "meta_classification_type": "U",
        "meta_norad_cat_id": 66421,
        "meta_element_set_no": 999,
        "meta_rev_at_epoch": 378,
        "meta_bstar": 0.00012206395,
        "meta_mean_motion_dot": 2.46e-06,
        "meta_mean_motion_ddot": 0,
        "tle_line1": "1 66421U 25258K   25340.27652479  .00000246  00000+0  12206-3 0  9992",
        "tle_line2": "2 66421  49.9961 285.9938 0064529 226.1748 133.3827 14.42319570  3780"
      },
      "geometry": {
        "type": "Point",
        "coordinates": [
          -146.05662070658673,
          -48.32296741332859
        ]
      }
    },
    {
      "type": "Feature",
      "properties": {
        "norad_id": 66422,
        "name": "STARLINK-35617",
        "group": "last-30-days",
        "lat": 42.85640615298803,
        "lon": 178.7742909173323,
        "alt_km": 438.0905664417869,
        "timestamp": "2025-12-06T14:35:35.909067+00:00",
        "meta_object_name": "STARLINK-35617",
        "meta_object_id": "2025-259A",
        "meta_epoch": "2025-12-06T08:00:01.999872",
        "meta_mean_motion": 15.40714357,
        "meta_eccentricity": 0.0001303,
        "meta_inclination": 43.0007,
        "meta_ra_of_asc_node": 85.023,
        "meta_arg_of_pericenter": 298.0764,
        "meta_mean_anomaly": 70.3926,
        "meta_ephemeris_type": 0,
        "meta_classification_type": "U",
        "meta_norad_cat_id": 66422,
        "meta_element_set_no": 999,
        "meta_rev_at_epoch": 525,
        "meta_bstar": -0.0013976987,
        "meta_mean_motion_dot": -0.00058272,
        "meta_mean_motion_ddot": 0,
        "tle_line1": "1 66422U 25259A   25340.33335648 -.00058272  00000+0 -13977-2 0  9996",
        "tle_line2": "2 66422  43.0007  85.0230 0001303 298.0764  70.3926 15.40714357  5253"
      },
      "geometry": {
        "type": "Point",
        "coordinates": [
          178.7742909173323,
          42.85640615298803
        ]
      }
    },
    {
      "type": "Feature",
      "properties": {
        "norad_id": 66423,
        "name": "STARLINK-35618",
        "group": "last-30-days",
        "lat": 40.85903256036984,
        "lon": -164.748058089234,
        "alt_km": 438.46979423448556,
        "timestamp": "2025-12-06T14:35:35.909077+00:00",
        "meta_object_name": "STARLINK-35618",
        "meta_object_id": "2025-259B",
        "meta_epoch": "2025-12-06T08:00:01.999872",
        "meta_mean_motion": 15.40705415,
        "meta_eccentricity": 0.00013608,
        "meta_inclination": 43.0007,
        "meta_ra_of_asc_node": 84.9926,
        "meta_arg_of_pericenter": 264.5998,
        "meta_mean_anomaly": 116.3041,
        "meta_ephemeris_type": 0,
        "meta_classification_type": "U",
        "meta_norad_cat_id": 66423,
        "meta_element_set_no": 999,
        "meta_rev_at_epoch": 525,
        "meta_bstar": -0.001003947,
        "meta_mean_motion_dot": -0.00042018,
        "meta_mean_motion_ddot": 0,
        "tle_line1": "1 66423U 25259B   25340.33335648 -.00042018  00000+0 -10039-2 0  9994",
        "tle_line2": "2 66423  43.0007  84.9926 0001360 264.5998 116.3041 15.40705415  5258"
      },
      "geometry": {
        "type": "Point",
        "coordinates": [
          -164.748058089234,
          40.85903256036984
        ]
      }
    }
  ]
}